[{"OBJECT_NAME":"STARLINK-35957","OBJECT_ID":"2025-280C","EPOCH":"2026-03-09T22:09:10.953216","MEAN_MOTION":14.98331638,"ECCENTRICITY":0.00018765,"INCLINATION":70.0036,"RA_OF_ASC_NODE":333.7557,"ARG_OF_PERICENTER":245.3826,"MEAN_ANOMALY":114.7138,"EPHEMERIS_TYPE":0,"CLASSIFICATION_TYPE":"U","NORAD_CAT_ID":66823,"ELEMENT_SET_NO":999,"REV_AT_EPOCH":1611,"BSTAR":0.00065365909,"MEAN_MOTION_DOT":7.715e-5,"MEAN_MOTION_DDOT":0},{"OBJECT_NAME":"FENGYUN 1C DEB","OBJECT_ID":"1999-025DHR","EPOCH":"2026-03-09T03:17:03.366528","MEAN_MOTION":14.93788576,"ECCENTRICITY":0.01441183,"INCLINATION":98.9629,"RA_OF_ASC_NODE":141.136,"ARG_OF_PERICENTER":297.5682,"MEAN_ANOMALY":61.0956,"EPHEMERIS_TYPE":0,"CLASSIFICATION_TYPE":"U","NORAD_CAT_ID":33728,"ELEMENT_SET_NO":999,"REV_AT_EPOCH":99589,"BSTAR":0.0005846723,"MEAN_MOTION_DOT":7.528e-5,"MEAN_MOTION_DDOT":0}]
